[{"OBJECT_NAME":"STARLINK-34201","OBJECT_ID":"2025-107P","EPOCH":"2026-03-09T09:43:12.252288","MEAN_MOTION":15.27602563,"ECCENTRICITY":0.00033571,"INCLINATION":42.9991,"RA_OF_ASC_NODE":203.4388,"ARG_OF_PERICENTER":288.4495,"MEAN_ANOMALY":71.5991,"EPHEMERIS_TYPE":0,"CLASSIFICATION_TYPE":"U","NORAD_CAT_ID":64077,"ELEMENT_SET_NO":999,"REV_AT_EPOCH":4498,"BSTAR":0.0015512306,"MEAN_MOTION_DOT":0.00042706,"MEAN_MOTION_DDOT":0},{"OBJECT_NAME":"GEOSCAN 4 (RS92S4)","OBJECT_ID":"2025-155S","EPOCH":"2026-03-09T21:50:07.724832","MEAN_MOTION":15.30369837,"ECCENTRICITY":0.00070968,"INCLINATION":97.4465,"RA_OF_ASC_NODE":37.7626,"ARG_OF_PERICENTER":154.7045,"MEAN_ANOMALY":205.4544,"EPHEMERIS_TYPE":0,"CLASSIFICATION_TYPE":"U","NORAD_CAT_ID":64892,"ELEMENT_SET_NO":999,"REV_AT_EPOCH":6562,"BSTAR":0.00068609503,"MEAN_MOTION_DOT":0.00020121,"MEAN_MOTION_DDOT":0}]
